stk.v.4.3 

BEGIN Ephemeris 
 
NumberOfEphemerisPoints		146 
ScenarioEpoch	    2 Jan 2020 10:19: 2.537462711 
InterpolationMethod		Lagrange 
InterpolationOrder		5 
CentralBody				Earth 
CoordinateSystem			TEME 
CoordinateSystemEpoch	  2 Jan 2020 10:19: 2.537462711 
DistanceUnit			Kilometers 
 
EphemerisTimePosVel 
 
       0.00000000    5643.78769188   -4403.87344907       0.04028464  0.280690881  0.375511426  7.448945147
 END Ephemeris 
